NORAD_CAT_ID,OBJECT_NAME,OBJECT_TYPE,EPOCH,MEAN_MOTION,ECCENTRICITY,INCLINATION,RA_OF_ASC_NODE,ARG_OF_PERICENTER,MEAN_ANOMALY,BSTAR,MEAN_MOTION_DOT,MEAN_MOTION_DDOT,TLE_LINE0,TLE_LINE1,TLE_LINE2,SEMIMAJOR_AXIS,PERIOD,APOGEE,PERIGEE,DECAYED
52702.0,STARLINK-4033,PAYLOAD,2023-01-12 03:15:15,15.088812900000002,0.0002689,53.216,283.1504,28.4774,331.6365,0.00070494,0.00010962,0.0,0 STARLINK-4033,1 52702U 22053AY  23012.13559678  .00010962  00000-0  70494-3 0  9995,2 52702  53.2160 283.1504 0002689  28.4774 331.6365 15.08881290 36687,6917.754,95.435,541.479,537.759,0.0
52702.0,STARLINK-4033,PAYLOAD,2023-01-12 22:19:54,15.08839017,0.0002205,53.2146,279.5822,39.5515,320.5638,-0.00015495,-2.754e-05,0.0,0 STARLINK-4033,1 52702U 22053AY  23012.93049030 -.00002754  00000-0 -15495-3 0  9991,2 52702  53.2146 279.5822 0002205  39.5515 320.5638 15.08839017 37213,6917.883000000002,95.438,541.274,538.2230000000002,0.0
52702.0,STARLINK-4033,PAYLOAD,2023-01-12 23:55:17,15.08838551,0.0002488,53.2148,279.2851,36.1355,323.9805,-0.00014513,-2.597e-05,0.0,0 STARLINK-4033,1 52702U 22053AY  23012.99673138 -.00002597  00000-0 -14513-3 0  9994,2 52702  53.2148 279.2851 0002488  36.1355 323.9805 15.08838551 36812,6917.885,95.438,541.471,538.029,0.0
52702.0,STARLINK-4033,PAYLOAD,2023-01-13 11:03:00,15.088270199999998,0.0002394,53.2151,277.2034,37.4679,322.648,-0.00031475,-5.293e-05,0.0,0 STARLINK-4033,1 52702U 22053AY  23013.46041799 -.00005293  00000-0 -31475-3 0  9991,2 52702  53.2151 277.2034 0002394  37.4679 322.6480 15.08827020 36887,6917.92,95.438,541.441,538.129,0.0
52702.0,STARLINK-4033,PAYLOAD,2023-01-13 20:35:19,15.08819841,0.0002352,53.2152,275.4187,40.5899,319.5268,-0.00036747,-6.129e-05,0.0,0 STARLINK-4033,1 52702U 22053AY  23013.85786887 -.00006129  00000-0 -36747-3 0  9994,2 52702  53.2152 275.4187 0002352  40.5899 319.5268 15.08819841 37354,6917.941999999999,95.439,541.434,538.18,0.0
52702.0,STARLINK-4033,PAYLOAD,2023-01-14 17:15:21,15.08821053,0.0002266,53.2145,271.5537,45.5594,314.5583,0.00021987,3.211e-05,0.0,0 STARLINK-4033,1 52702U 22053AY  23014.71899933  .00003211  00000-0  21987-3 0  9994,2 52702  53.2145 271.5537 0002266  45.5594 314.5583 15.08821053 37075,6917.938,95.439,541.371,538.236,0.0
52702.0,STARLINK-4033,PAYLOAD,2023-01-15 02:47:39,15.08845568,0.0002247,53.2131,269.7681,59.5852,300.5362,7.9494e-05,9.77e-06,0.0,0 STARLINK-4033,1 52702U 22053AY  23015.11643006  .00000977  00000-0  79494-4 0  9990,2 52702  53.2131 269.7681 0002247  59.5852 300.5362 15.08845568 37134,6917.863,95.437,541.283,538.174,0.0
52702.0,STARLINK-4033,PAYLOAD,2023-01-15 20:16:54,15.08844044,0.0001815,53.2161,266.4975,57.9766,302.1403,0.00046315,7.091e-05,0.0,0 STARLINK-4033,1 52702U 22053AY  23015.84507915  .00007091  00000-0  46315-3 0  9997,2 52702  53.2161 266.4975 0001815  57.9766 302.1403 15.08844044 37247,6917.868,95.437,540.989,538.477,0.0
52702.0,STARLINK-4033,PAYLOAD,2023-01-15 21:52:17,15.08848882,0.0001878,53.2161,266.2003,63.4126,296.7058,0.00053966,8.313e-05,0.0,0 STARLINK-4033,1 52702U 22053AY  23015.91131726  .00008313  00000-0  53966-3 0  9996,2 52702  53.2161 266.2003 0001878  63.4126 296.7058 15.08848882 37662,6917.853,95.437,541.0169999999999,538.419,0.0
52702.0,STARLINK-4033,PAYLOAD,2023-01-16 08:59:59,15.08844008,0.0001996,53.2129,264.1173,63.6489,296.4708,0.00023218,3.409e-05,0.0,0 STARLINK-4033,1 52702U 22053AY  23016.37499713  .00003409  00000-0  23218-3 0  9998,2 52702  53.2129 264.1173 0001996  63.6489 296.4708 15.08844008 37739,6917.868,95.437,541.114,538.352,0.0
52702.0,STARLINK-4033,PAYLOAD,2023-01-16 16:56:56,15.08823111,0.0001905,53.2126,262.6315,72.3899,287.7301,-0.00031326,-5.268e-05,0.0,0 STARLINK-4033,1 52702U 22053AY  23016.70620488 -.00005268  00000-0 -31326-3 0  9996,2 52702  53.2126 262.6315 0001905  72.3899 287.7301 15.08823111 37373,6917.932,95.439,541.115,538.479,0.0
52702.0,STARLINK-4033,PAYLOAD,2023-01-17 02:29:14,15.08836929,0.0001855999999999,53.2146,260.8473,75.5466,284.5732,6.5066e-05,7.47e-06,0.0,0 STARLINK-4033,1 52702U 22053AY  23017.10364333  .00000747  00000-0  65066-4 0  9999,2 52702  53.2146 260.8473 0001856  75.5466 284.5732 15.08836929 37431,6917.89,95.438,541.039,538.471,0.0
52702.0,STARLINK-4033,PAYLOAD,2023-01-17 08:50:47,15.08828861,0.0001813,53.2144,259.6573,77.1209,282.9986,-4.8763e-06,-3.66e-06,0.0,0 STARLINK-4033,1 52702U 22053AY  23017.36860792 -.00000366  00000-0 -48763-5 0  9992,2 52702  53.2144 259.6573 0001813  77.1209 282.9986 15.08828861 37475,6917.914000000001,95.438,541.034,538.525,0.0
52702.0,STARLINK-4033,PAYLOAD,2023-01-17 15:12:20,15.08828192,0.0001587,53.214,258.4673,77.9074,282.2096,0.0001019,1.334e-05,0.0,0 STARLINK-4033,1 52702U 22053AY  23017.63357014  .00001334  00000-0  10190-3 0  9995,2 52702  53.2140 258.4673 0001587  77.9074 282.2096 15.08828192 37927,6917.916,95.438,540.879,538.684,0.0
52702.0,STARLINK-4033,PAYLOAD,2023-01-17 21:33:53,15.08832996,0.0001595,53.2141,257.278,78.907,281.2101,0.00012287,1.668e-05,0.0,0 STARLINK-4033,1 52702U 22053AY  23017.89853029  .00001668  00000-0  12287-3 0  9999,2 52702  53.2141 257.2780 0001595  78.9070 281.2101 15.08832996 37967,6917.901999999999,95.438,540.87,538.663,0.0
52702.0,STARLINK-4033,PAYLOAD,2023-01-18 02:20:02,15.08841489,0.0001603,53.2142,256.3859,80.1269,279.9904,0.00022481,3.292e-05,0.0,0 STARLINK-4033,1 52702U 22053AY  23018.09724770  .00003292  00000-0  22481-3 0  9994,2 52702  53.2142 256.3859 0001603  80.1269 279.9904 15.08841489 37580,6917.876,95.437,540.85,538.632,0.0
52702.0,STARLINK-4033,PAYLOAD,2023-01-18 13:27:44,15.08845297,0.0001530999999999,53.2129,254.304,85.6142,274.5025,0.00048171,7.388e-05,0.0,0 STARLINK-4033,1 52702U 22053AY  23018.56092960  .00007388  00000-0  48171-3 0  9999,2 52702  53.2129 254.3040 0001531  85.6142 274.5025 15.08845297 38065,6917.8640000000005,95.437,540.788,538.67,0.0
52702.0,STARLINK-4033,PAYLOAD,2023-01-18 21:24:39,15.08861906,0.0001469,53.2139,252.8175,88.5819,271.5341,0.00082302,0.00012842,0.0,0 STARLINK-4033,1 52702U 22053AY  23018.89212427  .00012842  00000-0  82302-3 0  9992,2 52702  53.2139 252.8175 0001469  88.5819 271.5341 15.08861906 38110,6917.813,95.436,540.695,538.6619999999999,0.0
52702.0,STARLINK-4033,PAYLOAD,2023-01-19 00:35:25,15.08871634,0.0001443,53.2138,252.223,88.8806,271.2352,0.0011872999999999,0.00018675,0.0,0 STARLINK-4033,1 52702U 22053AY  23019.02460177  .00018675  00000-0  11873-2 0  9999,2 52702  53.2138 252.2230 0001443  88.8806 271.2352 15.08871634 37720,6917.784000000001,95.436,540.6469999999999,538.65,0.0
52702.0,STARLINK-4033,PAYLOAD,2023-01-19 10:07:44,15.08843262,0.0001614,53.2115,250.4388,101.9955,258.1218,-8.721299999999999e-05,-1.676e-05,0.0,0 STARLINK-4033,1 52702U 22053AY  23019.42204381 -.00001676  00000-0 -87213-4 0  9994,2 52702  53.2115 250.4388 0001614 101.9955 258.1218 15.08843262 37788,6917.87,95.437,540.852,538.619,0.0
52702.0,STARLINK-4033,PAYLOAD,2023-01-20 08:23:09,15.08836704,0.0001422,53.2124,246.2763,101.5268,258.5884,0.00078498,0.00012226,0.0,0 STARLINK-4033,1 52702U 22053AY  23020.34941350  .00012226  00000-0  78498-3 0  9996,2 52702  53.2124 246.2763 0001422 101.5268 258.5884 15.08836704 37920,6917.89,95.438,540.739,538.7719999999999,0.0
52702.0,STARLINK-4033,PAYLOAD,2023-01-21 08:13:56,15.08847862,0.0001335,53.2125,241.8153,95.2839,264.8305,0.00054644,8.421e-05,0.0,0 STARLINK-4033,1 52702U 22053AY  23021.34301266  .00008421  00000-0  54644-3 0  9992,2 52702  53.2125 241.8153 0001335  95.2839 264.8305 15.08847862 38073,6917.856,95.437,540.645,538.798,0.0
52702.0,STARLINK-4033,PAYLOAD,2023-01-22 14:26:15,15.08840963,7.979999999999999e-05,53.2143,236.1656,85.2328,274.8755,0.00010959,1.457e-05,0.0,0 STARLINK-4033,1 52702U 22053AY  23022.60157104  .00001457  00000-0  10959-3 0  9995,2 52702  53.2143 236.1656 0000798  85.2328 274.8755 15.08840963 38268,6917.877,95.437,540.294,539.19,0.0
52702.0,STARLINK-4033,PAYLOAD,2023-01-22 20:47:48,15.08834601,0.0001306,53.2138,234.9741,87.9198,272.1944,-4.0117e-05,-9.26e-06,0.0,0 STARLINK-4033,1 52702U 22053AY  23022.86653601 -.00000926  00000-0 -40117-4 0  9998,2 52702  53.2138 234.9741 0001306  87.9198 272.1944 15.08834601 38301,6917.897,95.438,540.665,538.8580000000001,0.0
52702.0,STARLINK-4033,PAYLOAD,2023-01-23 19:03:13,15.088252300000002,0.0001381,53.2131,230.8105,85.5054,274.6095,-2.428e-05,-6.74e-06,0.0,0 STARLINK-4033,1 52702U 22053AY  23023.79390794 -.00000674  00000-0 -24280-4 0  9995,2 52702  53.2131 230.8105 0001381  85.5054 274.6095 15.08825230 38448,6917.926,95.438,540.746,538.835,0.0
52702.0,STARLINK-4033,PAYLOAD,2023-01-24 18:54:00,15.08847448,0.0001346,53.2131,226.3505,78.2939,281.8204,0.00069328,0.00010765,0.0,0 STARLINK-4033,1 52702U 22053AY  23024.78751112  .00010765  00000-0  69328-3 0  9991,2 52702  53.2131 226.3505 0001346  78.2939 281.8204 15.08847448 38597,6917.858,95.437,540.654,538.7909999999999,0.0
52702.0,STARLINK-4033,PAYLOAD,2023-01-25 13:58:37,15.08864434,0.0001364,53.213,222.782,75.17399999999999,284.9403,0.00057454,8.874e-05,0.0,0 STARLINK-4033,1 52702U 22053AY  23025.58238087  .00008874  00000-0  57454-3 0  9996,2 52702  53.2130 222.7820 0001364  75.1740 284.9403 15.08864434 39121,6917.806,95.436,540.614,538.727,0.0
52702.0,STARLINK-4033,PAYLOAD,2023-01-25 17:09:23,15.088684900000002,0.0001358,53.213,222.1872,76.3976,283.7167,0.00064099,9.936e-05,0.0,0 STARLINK-4033,1 52702U 22053AY  23025.71485809  .00009936  00000-0  64099-3 0  9990,2 52702  53.2130 222.1872 0001358  76.3976 283.7167 15.08868490 39141,6917.793000000001,95.436,540.5980000000001,538.719,0.0
52702.0,STARLINK-4033,PAYLOAD,2023-01-25 20:20:09,15.08870656,0.0001346,53.2131,221.5924,76.3196,283.7945,0.00065136,0.00010102,0.0,0 STARLINK-4033,1 52702U 22053AY  23025.84733558  .00010102  00000-0  65136-3 0  9991,2 52702  53.2131 221.5924 0001346  76.3196 283.7945 15.08870656 38751,6917.786999999999,95.436,540.5830000000001,538.721,0.0
